{"type": "FeatureCollection", "features": [ {"type": "Feature", "properties": {"norad_id": 38722, "name": "FENGYUN 1C DEB", "group": "fengyun-1c-debris", "lat": -80.3180690812426, "lon": -171.0596895162685, "alt_km": 808.4750686752086, "timestamp": "2025-12-11T18:59:46.363726+00:00", "meta": {"OBJECT_NAME": "FENGYUN 1C DEB", "OBJECT_ID": "1999-025ETP", "EPOCH": "2025-12-07T11:41:09.627072", "MEAN_MOTION": 14.58179572, "ECCENTRICITY": 0.01480338, "INCLINATION": 99.3541, "RA_OF_ASC_NODE": 79.152, "ARG_OF_PERICENTER": 110.7247, "MEAN_ANOMALY": 250.9886, "EPHEMERIS_TYPE": 0, "CLASSIFICATION_TYPE": "U", "NORAD_CAT_ID": 38722, "ELEMENT_SET_NO": 999, "REV_AT_EPOCH": 70387, "BSTAR": 0.0047477196, "MEAN_MOTION_DOT": 0.00025504, "MEAN_MOTION_DDOT": 0}, "tle": {"line1": "1 38722U 99025ETP 25341.48691698  .00025504  00000+0  47477-2 0  9999", "line2": "2 38722  99.3541  79.1520 0148033 110.7247 250.9886 14.58179572703872"}}, "geometry": {"type": "Point", "coordinates": [-171.0596895162685, -80.3180690812426]}}, {"type": "Feature", "properties": {"norad_id": 38724, "name": "FENGYUN 1C DEB", "group": "fengyun-1c-debris", "lat": -22.49782110223165, "lon": -1.5757010259026825, "alt_km": 856.3252862995105, "timestamp": "2025-12-11T18:59:46.363736+00:00", "meta": {"OBJECT_NAME": "FENGYUN 1C DEB", "OBJECT_ID": "1999-025ETR", "EPOCH": "2025-11-13T12:10:01.066656", "MEAN_MOTION": 14.14277973, "ECCENTRICITY": 0.012547, "INCLINATION": 98.7406, "RA_OF_ASC_NODE": 327.0705, "ARG_OF_PERICENTER": 154.7752, "MEAN_ANOMALY": 205.962, "EPHEMERIS_TYPE": 0, "CLASSIFICATION_TYPE": "U", "NORAD_CAT_ID": 38724, "ELEMENT_SET_NO": 999, "REV_AT_EPOCH": 56211, "BSTAR": 0.0084973, "MEAN_MOTION_DOT": 0.00017498, "MEAN_MOTION_DDOT": 0}, "tle": {"line1": "1 38724U 99025ETR 25317.50695679  .00017498  00000+0  84973-2 0  9995", "line2": "2 38724  98.7406 327.0705 0125470 154.7752 205.9620 14.14277973562118"}}, "geometry": {"type": "Point", "coordinates": [-1.5757010259026825, -22.49782110223165]}}, {"type": "Feature", "properties": {"norad_id": 38725, "name": "FENGYUN 1C DEB", "group": "fengyun-1c-debris", "lat": -6.62108068953202, "lon": -70.06009898277696, "alt_km": 745.6531083724021, "timestamp": "2025-12-11T18:59:46.363746+00:00", "meta": {"OBJECT_NAME": "FENGYUN 1C DEB", "OBJECT_ID": "1999-025ETS", "EPOCH": "2025-12-10T13:50:08.556288", "MEAN_MOTION": 14.42766759, "ECCENTRICITY": 0.0034699, "INCLINATION": 98.871, "RA_OF_ASC_NODE": 109.715, "ARG_OF_PERICENTER": 263.0773, "MEAN_ANOMALY": 96.6468, "EPHEMERIS_TYPE": 0, "CLASSIFICATION_TYPE": "U", "NORAD_CAT_ID": 38725, "ELEMENT_SET_NO": 999, "REV_AT_EPOCH": 73321, "BSTAR": 0.0046037, "MEAN_MOTION_DOT": 0.0001544, "MEAN_MOTION_DDOT": 0}, "tle": {"line1": "1 38725U 99025ETS 25344.57648792  .00015440  00000+0  46037-2 0  9991", "line2": "2 38725  98.8710 109.7150 0034699 263.0773  96.6468 14.42766759733218"}}, "geometry": {"type": "Point", "coordinates": [-70.06009898277696, -6.62108068953202]}}, {"type": "Feature", "properties": {"norad_id": 38726, "name": "FENGYUN 1C DEB", "group": "fengyun-1c-debris", "lat": -49.975909415083485, "lon": 20.733027511940247, "alt_km": 581.2076686219561, "timestamp": "2025-12-11T18:59:46.363756+00:00", "meta": {"OBJECT_NAME": "FENGYUN 1C DEB", "OBJECT_ID": "1999-025ETT", "EPOCH": "2025-12-10T08:03:54.289728", "MEAN_MOTION": 15.02512823, "ECCENTRICITY": 0.0023561, "INCLINATION": 99.137, "RA_OF_ASC_NODE": 7.9704, "ARG_OF_PERICENTER": 132.3277, "MEAN_ANOMALY": 227.9944, "EPHEMERIS_TYPE": 0, "CLASSIFICATION_TYPE": "U", "NORAD_CAT_ID": 38726, "ELEMENT_SET_NO": 999, "REV_AT_EPOCH": 69819, "BSTAR": 0.0093647, "MEAN_MOTION_DOT": 0.00127229, "MEAN_MOTION_DDOT": 0}, "tle": {"line1": "1 38726U 99025ETT 25344.33604502  .00127229  00000+0  93647-2 0  9995", "line2": "2 38726  99.1370   7.9704 0023561 132.3277 227.9944 15.02512823698195"}}, "geometry": {"type": "Point", "coordinates": [20.733027511940247, -49.975909415083485]}}, {"type": "Feature", "properties": {"norad_id": 38728, "name": "FENGYUN 1C DEB", "group": "fengyun-1c-debris", "lat": -23.09244332688264, "lon": -23.00643735437527, "alt_km": 655.6025042132005, "timestamp": "2025-12-11T18:59:46.363778+00:00", "meta": {"OBJECT_NAME": "FENGYUN 1C DEB", "OBJECT_ID": "1999-025ETV", "EPOCH": "2025-12-06T05:29:30.081696", "MEAN_MOTION": 14.70418681, "ECCENTRICITY": 0.0075523, "INCLINATION": 99.2588, "RA_OF_ASC_NODE": 326.6948, "ARG_OF_PERICENTER": 74.331, "MEAN_ANOMALY": 352.8104, "EPHEMERIS_TYPE": 0, "CLASSIFICATION_TYPE": "U", "NORAD_CAT_ID": 38728, "ELEMENT_SET_NO": 999, "REV_AT_EPOCH": 65515, "BSTAR": 0.0019460135, "MEAN_MOTION_DOT": 0.00012268, "MEAN_MOTION_DDOT": 0}, "tle": {"line1": "1 38728U 99025ETV 25340.22882039  .00012268  00000+0  19460-2 0  9991", "line2": "2 38728  99.2588 326.6948 0075523  74.3310 352.8104 14.70418681655154"}}, "geometry": {"type": "Point", "coordinates": [-23.00643735437527, -23.09244332688264]}}, {"type": "Feature", "properties": {"norad_id": 38789, "name": "FENGYUN 1C DEB", "group": "fengyun-1c-debris", "lat": 4.435900992088534, "lon": -128.8675323318413, "alt_km": 605.5329575128908, "timestamp": "2025-12-11T18:59:46.363789+00:00", "meta": {"OBJECT_NAME": "FENGYUN 1C DEB", "OBJECT_ID": "1999-025EUD", "EPOCH": "2025-12-09T22:24:51.255648", "MEAN_MOTION": 14.45777362, "ECCENTRICITY": 0.02079599, "INCLINATION": 98.8559, "RA_OF_ASC_NODE": 229.8858, "ARG_OF_PERICENTER": 33.6569, "MEAN_ANOMALY": 29.055, "EPHEMERIS_TYPE": 0, "CLASSIFICATION_TYPE": "U", "NORAD_CAT_ID": 38789, "ELEMENT_SET_NO": 999, "REV_AT_EPOCH": 61805, "BSTAR": 0.00090846035, "MEAN_MOTION_DOT": 4.156e-05, "MEAN_MOTION_DDOT": 0}, "tle": {"line1": "1 38789U 99025EUD 25343.93392657  .00004156  00000+0  90846-3 0  9996", "line2": "2 38789  98.8559 229.8858 0207959  33.6569  29.0550 14.45777362618054"}}, "geometry": {"type": "Point", "coordinates": [-128.8675323318413, 4.435900992088534]}}, {"type": "Feature", "properties": {"norad_id": 38795, "name": "FENGYUN 1C DEB", "group": "fengyun-1c-debris", "lat": 15.867477549740274, "lon": -168.62179484835, "alt_km": 1157.3879223405002, "timestamp": "2025-12-11T18:59:46.363800+00:00", "meta": {"OBJECT_NAME": "FENGYUN 1C DEB", "OBJECT_ID": "1999-025EUK", "EPOCH": "2025-12-09T08:20:16.870272", "MEAN_MOTION": 13.29873446, "ECCENTRICITY": 0.05024228, "INCLINATION": 98.6999, "RA_OF_ASC_NODE": 6.8116, "ARG_OF_PERICENTER": 264.2547, "MEAN_ANOMALY": 90.1112, "EPHEMERIS_TYPE": 0, "CLASSIFICATION_TYPE": "U", "NORAD_CAT_ID": 38795, "ELEMENT_SET_NO": 999, "REV_AT_EPOCH": 78467, "BSTAR": 0.005100856, "MEAN_MOTION_DOT": 4.746e-05, "MEAN_MOTION_DDOT": 0}, "tle": {"line1": "1 38795U 99025EUK 25343.34741748  .00004746  00000+0  51009-2 0  9999", "line2": "2 38795  98.6999   6.8116 0502422 264.2547  90.1112 13.29873446784674"}}, "geometry": {"type": "Point", "coordinates": [-168.62179484835, 15.867477549740274]}}, {"type": "Feature", "properties": {"norad_id": 38797, "name": "FENGYUN 1C DEB", "group": "fengyun-1c-debris", "lat": -55.7176576648901, "lon": 44.473623429015646, "alt_km": 859.7434621467391, "timestamp": "2025-12-11T18:59:46.363810+00:00", "meta": {"OBJECT_NAME": "FENGYUN 1C DEB", "OBJECT_ID": "1999-025EUM", "EPOCH": "2025-12-08T10:28:09.847776", "MEAN_MOTION": 13.61607637, "ECCENTRICITY": 0.0245005, "INCLINATION": 99.4848, "RA_OF_ASC_NODE": 235.4069, "ARG_OF_PERICENTER": 232.356, "MEAN_ANOMALY": 125.5125, "EPHEMERIS_TYPE": 0, "CLASSIFICATION_TYPE": "U", "NORAD_CAT_ID": 38797, "ELEMENT_SET_NO": 999, "REV_AT_EPOCH": 59224, "BSTAR": 0.000515849, "MEAN_MOTION_DOT": 4.38e-06, "MEAN_MOTION_DDOT": 0}, "tle": {"line1": "1 38797U 99025EUM 25342.43622509  .00000438  00000+0  51585-3 0  9997", "line2": "2 38797  99.4848 235.4069 0245005 232.3560 125.5125 13.61607637592247"}}, "geometry": {"type": "Point", "coordinates": [44.473623429015646, -55.7176576648901]}}, {"type": "Feature", "properties": {"norad_id": 38799, "name": "FENGYUN 1C DEB", "group": "fengyun-1c-debris", "lat": -52.20538367254833, "lon": 72.24379442779524, "alt_km": 655.1812151083168, "timestamp": "2025-12-11T18:59:46.363820+00:00", "meta": {"OBJECT_NAME": "FENGYUN 1C DEB", "OBJECT_ID": "1999-025EUP", "EPOCH": "2025-12-07T22:24:30.590496", "MEAN_MOTION": 14.4868874, "ECCENTRICITY": 0.01640713, "INCLINATION": 98.4063, "RA_OF_ASC_NODE": 57.4094, "ARG_OF_PERICENTER": 5.0879, "MEAN_ANOMALY": 355.1934, "EPHEMERIS_TYPE": 0, "CLASSIFICATION_TYPE": "U", "NORAD_CAT_ID": 38799, "ELEMENT_SET_NO": 999, "REV_AT_EPOCH": 63969, "BSTAR": 0.00109493, "MEAN_MOTION_DOT": 4.844e-05, "MEAN_MOTION_DDOT": 0}, "tle": {"line1": "1 38799U 99025EUP 25341.93368739  .00004844  00000+0  10949-2 0  9998", "line2": "2 38799  98.4063  57.4094 0164071   5.0879 355.1934 14.48688740639698"}}, "geometry": {"type": "Point", "coordinates": [72.24379442779524, -52.20538367254833]}}, {"type": "Feature", "properties": {"norad_id": 38801, "name": "FENGYUN 1C DEB", "group": "fengyun-1c-debris", "lat": -56.19695028145913, "lon": 49.16419127762183, "alt_km": 656.7357877445211, "timestamp": "2025-12-11T18:59:46.363831+00:00", "meta": {"OBJECT_NAME": "FENGYUN 1C DEB", "OBJECT_ID": "1999-025EUR", "EPOCH": "2025-12-09T10:00:23.128704", "MEAN_MOTION": 14.24790723, "ECCENTRICITY": 0.03472611, "INCLINATION": 98.3741, "RA_OF_ASC_NODE": 34.1842, "ARG_OF_PERICENTER": 1.7583, "MEAN_ANOMALY": 11.3866, "EPHEMERIS_TYPE": 0, "CLASSIFICATION_TYPE": "U", "NORAD_CAT_ID": 38801, "ELEMENT_SET_NO": 999, "REV_AT_EPOCH": 64313, "BSTAR": 0.00080786279, "MEAN_MOTION_DOT": 3.493e-05, "MEAN_MOTION_DDOT": 0}, "tle": {"line1": "1 38801U 99025EUR 25343.41693436  .00003493  00000+0  80786-3 0  9998", "line2": "2 38801  98.3741  34.1842 0347261   1.7583  11.3866 14.24790723643134"}}, "geometry": {"type": "Point", "coordinates": [49.16419127762183, -56.19695028145913]}}]}